[{"OBJECT_NAME":"OBJECT C","OBJECT_ID":"2024-094C","EPOCH":"2026-03-09T23:40:22.800864","MEAN_MOTION":15.16350553,"ECCENTRICITY":0.0005615,"INCLINATION":97.3999,"RA_OF_ASC_NODE":142.6319,"ARG_OF_PERICENTER":209.4203,"MEAN_ANOMALY":150.6715,"EPHEMERIS_TYPE":0,"CLASSIFICATION_TYPE":"U","NORAD_CAT_ID":59807,"ELEMENT_SET_NO":999,"REV_AT_EPOCH":10012,"BSTAR":0.00045742528,"MEAN_MOTION_DOT":8.815e-5,"MEAN_MOTION_DDOT":0},{"OBJECT_NAME":"OBJECT B","OBJECT_ID":"2025-055B","EPOCH":"2026-03-09T22:16:45.727392","MEAN_MOTION":15.18688893,"ECCENTRICITY":0.0012288,"INCLINATION":97.6347,"RA_OF_ASC_NODE":209.4031,"ARG_OF_PERICENTER":141.9281,"MEAN_ANOMALY":218.2824,"EPHEMERIS_TYPE":0,"CLASSIFICATION_TYPE":"U","NORAD_CAT_ID":63292,"ELEMENT_SET_NO":999,"REV_AT_EPOCH":5406,"BSTAR":0.00077133198,"MEAN_MOTION_DOT":0.00015979,"MEAN_MOTION_DDOT":0}]
